{
    "links": {
        "self": "http://www.neowsapp.com/rest/v1/neo/3831204?api_key=iIulBulltgU6a56xZRHN4H3l9WmuAYTsLGpBGhQ2"
    },
    "id": "3831204",
    "neo_reference_id": "3831204",
    "name": "(2018 TR1)",
    "designation": "2018 TR1",
    "nasa_jpl_url": "http://ssd.jpl.nasa.gov/sbdb.cgi?sstr=3831204",
    "absolute_magnitude_h": 23.2,
    "estimated_diameter": {
        "kilometers": {
            "estimated_diameter_min": 0.0608912622,
            "estimated_diameter_max": 0.1361570015
        },
        "meters": {
            "estimated_diameter_min": 60.8912622106,
            "estimated_diameter_max": 136.1570015386
        },
        "miles": {
            "estimated_diameter_min": 0.0378360645,
            "estimated_diameter_max": 0.0846040122
        },
        "feet": {
            "estimated_diameter_min": 199.7744887109,
            "estimated_diameter_max": 446.7093369279
        }
    },
    "is_potentially_hazardous_asteroid": false,
    "close_approach_data": [
        {
            "close_approach_date": "2018-10-15",
            "close_approach_date_full": "2018-Oct-15 09:02",
            "epoch_date_close_approach": 1539594120000,
            "relative_velocity": {
                "kilometers_per_second": "14.1339668613",
                "kilometers_per_hour": "50882.2807006868",
                "miles_per_hour": "31616.2704720462"
            },
            "miss_distance": {
                "astronomical": "0.0847001464",
                "lunar": "32.9483569496",
                "kilometers": "12670961.490128168",
                "miles": "7873370.3769299984"
            },
            "orbiting_body": "Earth"
        }
    ],
    "orbital_data": {
        "orbit_id": "3",
        "orbit_determination_date": "2018-12-30 06:54:36",
        "first_observation_date": "2018-10-04",
        "last_observation_date": "2018-12-08",
        "data_arc_in_days": 65,
        "observations_used": 39,
        "orbit_uncertainty": "7",
        "minimum_orbit_intersection": ".0240395",
        "jupiter_tisserand_invariant": "3.174",
        "epoch_osculation": "2459000.5",
        "eccentricity": ".6330191990944446",
        "semi_major_axis": "2.467082893278175",
        "inclination": "2.477725213457416",
        "ascending_node_longitude": "178.5314846908294",
        "orbital_period": "1415.383210818138",
        "perihelion_distance": ".9053720560756197",
        "perihelion_argument": "253.9132687994512",
        "aphelion_distance": "4.028793730480731",
        "perihelion_time": "2458441.187915391745",
        "mean_anomaly": "142.2599539968991",
        "mean_motion": ".2543480784909891",
        "equinox": "J2000",
        "orbit_class": {
            "orbit_class_type": "APO",
            "orbit_class_description": "Near-Earth asteroid orbits which cross the Earth’s orbit similar to that of 1862 Apollo",
            "orbit_class_range": "a (semi-major axis) > 1.0 AU; q (perihelion) < 1.017 AU"
        }
    },
    "is_sentry_object": false
}